[{"OBJECT_NAME":"TISAT 1","OBJECT_ID":"2010-035E","EPOCH":"2026-03-09T18:10:07.877568","MEAN_MOTION":15.27628633,"ECCENTRICITY":0.00013432,"INCLINATION":98.0645,"RA_OF_ASC_NODE":6.8512,"ARG_OF_PERICENTER":159.303,"MEAN_ANOMALY":200.8262,"EPHEMERIS_TYPE":0,"CLASSIFICATION_TYPE":"U","NORAD_CAT_ID":36799,"ELEMENT_SET_NO":999,"REV_AT_EPOCH":85250,"BSTAR":0.00091004793,"MEAN_MOTION_DOT":0.00024554,"MEAN_MOTION_DDOT":0},{"OBJECT_NAME":"STARLINK-32544","OBJECT_ID":"2024-207F","EPOCH":"2026-03-09T22:50:03.132960","MEAN_MOTION":15.27604471,"ECCENTRICITY":0.00012267,"INCLINATION":43.0027,"RA_OF_ASC_NODE":280.129,"ARG_OF_PERICENTER":305.5012,"MEAN_ANOMALY":54.5725,"EPHEMERIS_TYPE":0,"CLASSIFICATION_TYPE":"U","NORAD_CAT_ID":61917,"ELEMENT_SET_NO":999,"REV_AT_EPOCH":7476,"BSTAR":0.0015001223,"MEAN_MOTION_DOT":0.0004128,"MEAN_MOTION_DDOT":0}]
